ALOS-4 (DAICHI-4)       
1 60182U 24123A   24295.19716982  .00005022  00000+0  67882-3 0  9996
2 60182  97.9217  30.0400 0001480  97.8788 262.2592 14.79476041 16571
